NORAD_CAT_ID,OBJECT_NAME,OBJECT_TYPE,EPOCH,MEAN_MOTION,ECCENTRICITY,INCLINATION,RA_OF_ASC_NODE,ARG_OF_PERICENTER,MEAN_ANOMALY,BSTAR,MEAN_MOTION_DOT,MEAN_MOTION_DDOT,TLE_LINE0,TLE_LINE1,TLE_LINE2,SEMIMAJOR_AXIS,PERIOD,APOGEE,PERIGEE,DECAYED
53733.0,STARLINK-4574,PAYLOAD,2024-03-13 06:09:32,15.08842499,0.0001131,53.2146,275.4314,79.7511,280.3609,7.3143e-05,8.77e-06,0.0,0 STARLINK-4574,1 53733U 22107AK  24073.25662573  .00000877  00000-0  73143-4 0  9999,2 53733  53.2146 275.4314 0001131  79.7511 280.3609 15.08842499 84916,6917.873,95.437,540.52,538.955,0.0
53733.0,STARLINK-4574,PAYLOAD,2024-03-13 20:27:59,15.08881759,0.0002436,53.2108,272.7543,298.1634,61.9112,0.0012102,0.00019047,0.0,0 STARLINK-4574,1 53733U 22107AK  24073.85276963  .00019047  00000-0  12102-2 0  9994,2 53733  53.2108 272.7543 0002436 298.1634  61.9112 15.08881759 84374,6917.753,95.435,541.303,537.933,0.0
53733.0,STARLINK-4574,PAYLOAD,2024-03-13 22:03:19,15.08944443,0.0001361,53.213,272.4574,289.8274,70.2571,0.0016795,0.00026619,0.0,0 STARLINK-4574,1 53733U 22107AK  24073.91897759  .00026619  00000-0  16795-2 0  9998,2 53733  53.2130 272.4574 0001361 289.8274  70.2571 15.08944443 85017,6917.561,95.431,540.368,538.485,0.0
53733.0,STARLINK-4574,PAYLOAD,2024-03-14 06:00:19,15.08839794,7.03e-05,53.2118,270.9711,28.5131,331.5899,8.4779e-05,1.062e-05,0.0,0 STARLINK-4574,1 53733U 22107AK  24074.25023000  .00001062  00000-0  84779-4 0  9990,2 53733  53.2118 270.9711 0000703  28.5131 331.5899 15.08839794 84431,6917.881,95.438,540.232,539.26,0.0
53733.0,STARLINK-4574,PAYLOAD,2024-03-14 21:54:11,15.08842144,0.0001254,53.2146,267.9972,81.4097,278.7037,0.00012686,1.732e-05,0.0,0 STARLINK-4574,1 53733U 22107AK  24074.91262992  .00001732  00000-0  12686-3 0  9999,2 53733  53.2146 267.9972 0001254  81.4097 278.7037 15.08842144 85168,6917.874,95.437,540.606,538.871,0.0
53733.0,STARLINK-4574,PAYLOAD,2024-03-15 21:44:58,15.08836295,0.0001353,53.2139,263.5365,78.3645,281.7499,8.3651e-05,1.044e-05,0.0,0 STARLINK-4574,1 53733U 22107AK  24075.90623510  .00001044  00000-0  83651-4 0  9993,2 53733  53.2139 263.5365 0001353  78.3645 281.7499 15.08836295 85315,6917.892,95.438,540.693,538.821,0.0
53733.0,STARLINK-4574,PAYLOAD,2024-03-16 12:03:27,15.08837795,0.0001277,53.2138,260.86,81.9048,278.2089,8.8314e-05,1.118e-05,0.0,0 STARLINK-4574,1 53733U 22107AK  24076.50239683  .00001118  00000-0  88314-4 0  9997,2 53733  53.2138 260.8600 0001277  81.9048 278.2089 15.08837795 85400,6917.887,95.438,540.636,538.869,0.0
53733.0,STARLINK-4574,PAYLOAD,2024-03-16 18:24:59,15.08840204,0.0001489,53.2151,259.6738,69.6423,290.4729,0.00012161,1.648e-05,0.0,0 STARLINK-4574,1 53733U 22107AK  24076.76735706  .00001648  00000-0  12161-3 0  9996,2 53733  53.2151 259.6738 0001489  69.6423 290.4729 15.08840204 85448,6917.88,95.438,540.775,538.715,0.0
53733.0,STARLINK-4574,PAYLOAD,2024-03-17 11:54:14,15.08842588,0.0001424,53.2156,256.4029,77.7184,282.3967,0.00018201,2.61e-05,0.0,0 STARLINK-4574,1 53733U 22107AK  24077.49599612  .00002610  00000-0  18201-3 0  9992,2 53733  53.2156 256.4029 0001424  77.7184 282.3967 15.08842588 84927,6917.872,95.437,540.723,538.752,0.0
53733.0,STARLINK-4574,PAYLOAD,2024-03-17 18:15:46,15.08843962,0.0001384,53.2155,255.2135,76.8206,283.2941,0.00018744,2.697e-05,0.0,0 STARLINK-4574,1 53733U 22107AK  24077.76095525  .00002697  00000-0  18744-3 0  9993,2 53733  53.2155 255.2135 0001384  76.8206 283.2941 15.08843962 85594,6917.868,95.437,540.691,538.776,0.0
53733.0,STARLINK-4574,PAYLOAD,2024-03-18 21:17:19,15.08843759,0.0001494,53.2158,250.1587,75.3932,284.7226,0.00010501,1.384e-05,0.0,0 STARLINK-4574,1 53733U 22107AK  24078.88703503  .00001384  00000-0  10501-3 0  9994,2 53733  53.2158 250.1587 0001494  75.3932 284.7226 15.08843759 85769,6917.869,95.437,540.767,538.7,0.0
53733.0,STARLINK-4574,PAYLOAD,2024-03-19 11:35:48,15.08840032,0.0001466,53.215,247.482,74.6119,285.5035,5.4746e-05,5.83e-06,0.0,0 STARLINK-4574,1 53733U 22107AK  24079.48319713  .00000583  00000-0  54746-4 0  9997,2 53733  53.2150 247.4820 0001466  74.6119 285.5035 15.08840032 85227,6917.88,95.438,540.759,538.731,0.0
53733.0,STARLINK-4574,PAYLOAD,2024-03-20 11:26:35,15.08835116,0.0001686,53.2161,243.0181,111.9208,248.1964,9.7609e-05,1.266e-05,0.0,0 STARLINK-4574,1 53733U 22107AK  24080.47679915  .00001266  00000-0  97609-4 0  9995,2 53733  53.2161 243.0181 0001686 111.9208 248.1964 15.08835116 86009,6917.895,95.438,540.927,538.594,0.0
53733.0,STARLINK-4574,PAYLOAD,2024-03-20 16:12:44,15.08838547,0.0001797,53.2163,242.1256,112.2723,247.8459,0.00011544,1.55e-05,0.0,0 STARLINK-4574,1 53733U 22107AK  24080.67551848  .00001550  00000-0  11544-3 0  9990,2 53733  53.2163 242.1256 0001797 112.2723 247.8459 15.08838547 85402,6917.885,95.438,540.993,538.507,0.0
53733.0,STARLINK-4574,PAYLOAD,2024-03-21 14:28:08,15.08844143,0.0001551,53.2163,237.9656,109.3165,250.7995,0.00013298,1.829e-05,0.0,0 STARLINK-4574,1 53733U 22107AK  24081.60287709  .00001829  00000-0  13298-3 0  9993,2 53733  53.2163 237.9656 0001551 109.3165 250.7995 15.08844143 86175,6917.868,95.437,540.806,538.66,0.0
53733.0,STARLINK-4574,PAYLOAD,2024-03-21 19:14:17,15.08854093,0.0001337,53.2149,237.0733,82.1455,277.9688,0.00037697,5.719e-05,0.0,0 STARLINK-4574,1 53733U 22107AK  24081.80159286  .00005719  00000-0  37697-3 0  9994,2 53733  53.2149 237.0733 0001337  82.1455 277.9688 15.08854093 85576,6917.837,95.437,540.627,538.777,0.0
53733.0,STARLINK-4574,PAYLOAD,2024-03-22 14:18:55,15.08847513,0.0001505,53.2164,233.5052,83.8557,276.2606,0.00021227,3.093e-05,0.0,0 STARLINK-4574,1 53733U 22107AK  24082.59647536  .00003093  00000-0  21227-3 0  9996,2 53733  53.2164 233.5052 0001505  83.8557 276.2606 15.08847513 86321,6917.857,95.437,540.764,538.681,0.0
53733.0,STARLINK-4574,PAYLOAD,2024-03-22 19:05:04,15.08860525,0.0001663,53.2167,232.6119,84.6535,275.4647,0.00050746,7.802e-05,0.0,0 STARLINK-4574,1 53733U 22107AK  24082.79519038  .00007802  00000-0  50746-3 0  9993,2 53733  53.2167 232.6119 0001663  84.6535 275.4647 15.08860525 85725,6917.818,95.436,540.833,538.532,0.0
53733.0,STARLINK-4574,PAYLOAD,2024-03-23 09:23:32,15.08839299,0.0001658,53.2142,229.9354,88.0059,272.1123,-5.3694e-05,-1.142e-05,0.0,0 STARLINK-4574,1 53733U 22107AK  24083.39135316 -.00001142  00000-0 -53694-4 0  9992,2 53733  53.2142 229.9354 0001658  88.0059 272.1123 15.08839299 85818,6917.883,95.438,540.895,538.601,0.0
53733.0,STARLINK-4574,PAYLOAD,2024-03-23 17:20:28,15.08845521,0.0001431,53.2158,228.4487,76.0533,284.0618,1.1004e-06,-2.7e-06,0.0,0 STARLINK-4574,1 53733U 22107AK  24083.72255446 -.00000270  00000-0  11004-5 0  9996,2 53733  53.2158 228.4487 0001431  76.0533 284.0618 15.08845521 86490,6917.864,95.437,540.718,538.739,0.0
53733.0,STARLINK-4574,PAYLOAD,2024-03-24 14:00:29,15.08848263,0.0001779,53.2166,224.5866,65.7766,294.3412,0.00022441,3.286e-05,0.0,0 STARLINK-4574,1 53733U 22107AK  24084.58367711  .00003286  00000-0  22441-3 0  9994,2 53733  53.2166 224.5866 0001779  65.7766 294.3412 15.08848263 86622,6917.855,95.437,540.951,538.489,0.0
53733.0,STARLINK-4574,PAYLOAD,2024-03-24 18:46:38,15.08867777,0.000141,53.2169,223.6856,96.8519,263.2634,0.00060665,9.387e-05,0.0,0 STARLINK-4574,1 53733U 22107AK  24084.78238688  .00009387  00000-0  60665-3 0  9994,2 53733  53.2169 223.6856 0001410  96.8519 263.2634 15.08867777 86023,6917.795,95.436,540.636,538.685,0.0
53733.0,STARLINK-4574,PAYLOAD,2024-03-25 02:43:34,15.08854052,6.23e-05,53.217,222.2027,111.3635,248.7424,0.00038362,5.825e-05,0.0,0 STARLINK-4574,1 53733U 22107AK  24085.11358955  .00005825  00000-0  38362-3 0  9994,2 53733  53.2170 222.2027 0000623 111.3635 248.7424 15.08854052 86079,6917.837,95.437,540.133,539.271,0.0
53733.0,STARLINK-4574,PAYLOAD,2024-03-25 12:15:53,15.08843003,0.0001532,53.2159,220.4189,95.3627,264.754,0.00015385,2.162e-05,0.0,0 STARLINK-4574,1 53733U 22107AK  24085.51103647  .00002162  00000-0  15385-3 0  9995,2 53733  53.2159 220.4189 0001532  95.3627 264.7540 15.08843003 86135,6917.871,95.437,540.796,538.676,0.0
53733.0,STARLINK-4574,PAYLOAD,2024-03-25 15:26:39,15.08847855,0.0001617,53.2164,219.8246,98.2062,261.9114,0.00028307,4.221e-05,0.0,0 STARLINK-4574,1 53733U 22107AK  24085.64351611  .00004221  00000-0  28307-3 0  9991,2 53733  53.2164 219.8246 0001617  98.2062 261.9114 15.08847855 86782,6917.856,95.437,540.84,538.603,0.0
53733.0,STARLINK-4574,PAYLOAD,2024-03-26 13:42:03,15.08844389,0.0001837,53.2149,215.6602,133.7674,226.347,3.5292e-05,2.74e-06,0.0,0 STARLINK-4574,1 53733U 22107AK  24086.57087280  .00000274  00000-0  35292-4 0  9998,2 53733  53.2149 215.6602 0001837 133.7674 226.3470 15.08844389 86298,6917.867,95.437,541.003,538.461,0.0
53733.0,STARLINK-4574,PAYLOAD,2024-03-26 15:17:27,15.08827018,0.0001163,53.2162,215.3595,93.3008,266.8118,-0.00032518,-5.457e-05,0.0,0 STARLINK-4574,1 53733U 22107AK  24086.63711830 -.00005457  00000-0 -32518-3 0  9997,2 53733  53.2162 215.3595 0001163  93.3008 266.8118 15.08827018 86934,6917.92,95.438,540.59,538.981,0.0
53733.0,STARLINK-4574,PAYLOAD,2024-03-27 13:32:51,15.0883503,0.0001307,53.2161,211.2018,91.4722,268.6419,0.00015198,2.131e-05,0.0,0 STARLINK-4574,1 53733U 22107AK  24087.56448411  .00002131  00000-0  15198-3 0  9991,2 53733  53.2161 211.2018 0001307  91.4722 268.6419 15.08835030 86443,6917.896,95.438,540.665,538.856,0.0
53733.0,STARLINK-4574,PAYLOAD,2024-03-27 15:08:14,15.0883838,0.0001177,53.2159,210.9059,90.1182,269.9945,0.00023258,3.415e-05,0.0,0 STARLINK-4574,1 53733U 22107AK  24087.63072307  .00003415  00000-0  23258-3 0  9998,2 53733  53.2159 210.9059 0001177  90.1182 269.9945 15.08838380 87082,6917.885,95.438,540.565,538.936,0.0
53733.0,STARLINK-4574,PAYLOAD,2024-03-28 14:59:01,15.08843224,0.0001595,53.2173,206.4487,105.5209,254.5959,0.00037896,5.749e-05,0.0,0 STARLINK-4574,1 53733U 22107AK  24088.62432662  .00005749  00000-0  37896-3 0  9997,2 53733  53.2173 206.4487 0001595 105.5209 254.5959 15.08843224 87233,6917.871,95.437,540.839,538.632,0.0
